{"fetched_at":"2026-03-29T02:12:04Z","count":15717,"tles":[{"name":"STARLINK-11592 [DTC]","line1":"1 63560U 25075N   26087.21482521  .00226453  00000+0  17123-2 0  9994","line2":"2 63560  43.0018  41.9985 0002617 257.9103 102.1471 15.70955365 56167","category":"Starlink"}]}